{
  "type": "FeatureCollection",
  "features": [
    {
      "type": "Feature",
      "properties": {
        "norad_id": 34964,
        "name": "COSMOS 2251 DEB",
        "group": "cosmos-2251-debris",
        "lat": -73.16045487838461,
        "lon": -103.2807797207195,
        "alt_km": 896.9828074276675,
        "timestamp": "2025-12-23T20:42:37.471635+00:00",
        "meta_object_name": "COSMOS 2251 DEB",
        "meta_object_id": "1993-036AET",
        "meta_epoch": "2025-12-18T07:25:04.519776",
        "meta_mean_motion": 14.00628567,
        "meta_eccentricity": 0.02123167,
        "meta_inclination": 73.9712,
        "meta_ra_of_asc_node": 338.1457,
        "meta_arg_of_pericenter": 195.4091,
        "meta_mean_anomaly": 164.0515,
        "meta_ephemeris_type": 0,
        "meta_classification_type": "U",
        "meta_norad_cat_id": 34964,
        "meta_element_set_no": 999,
        "meta_rev_at_epoch": 84556,
        "meta_bstar": 0.00089791859,
        "meta_mean_motion_dot": 1.6e-05,
        "meta_mean_motion_ddot": 0,
        "tle_line1": "1 34964U 93036AET 25352.30908009  .00001600  00000+0  89792-3 0  9997",
        "tle_line2": "2 34964  73.9712 338.1457 0212316 195.4091 164.0515 14.00628567845561"
      },
      "geometry": {
        "type": "Point",
        "coordinates": [
          -103.2807797207195,
          -73.16045487838461
        ]
      }
    },
    {
      "type": "Feature",
      "properties": {
        "norad_id": 34965,
        "name": "COSMOS 2251 DEB",
        "group": "cosmos-2251-debris",
        "lat": 67.27843109182672,
        "lon": -115.424387754367,
        "alt_km": 734.160405298684,
        "timestamp": "2025-12-23T20:42:37.471645+00:00",
        "meta_object_name": "COSMOS 2251 DEB",
        "meta_object_id": "1993-036AEU",
        "meta_epoch": "2025-12-22T14:23:15.701856",
        "meta_mean_motion": 14.48730461,
        "meta_eccentricity": 0.00264392,
        "meta_inclination": 74.0517,
        "meta_ra_of_asc_node": 110.009,
        "meta_arg_of_pericenter": 236.0306,
        "meta_mean_anomaly": 123.8341,
        "meta_ephemeris_type": 0,
        "meta_classification_type": "U",
        "meta_norad_cat_id": 34965,
        "meta_element_set_no": 999,
        "meta_rev_at_epoch": 87256,
        "meta_bstar": 0.00029767583,
        "meta_mean_motion_dot": 1.1e-05,
        "meta_mean_motion_ddot": 0,
        "tle_line1": "1 34965U 93036AEU 25356.59948729  .00001100  00000+0  29768-3 0  9998",
        "tle_line2": "2 34965  74.0517 110.0090 0026439 236.0306 123.8341 14.48730461872566"
      },
      "geometry": {
        "type": "Point",
        "coordinates": [
          -115.424387754367,
          67.27843109182672
        ]
      }
    },
    {
      "type": "Feature",
      "properties": {
        "norad_id": 34967,
        "name": "COSMOS 2251 DEB",
        "group": "cosmos-2251-debris",
        "lat": -20.187730738276986,
        "lon": 59.17426278570437,
        "alt_km": 775.9646770483287,
        "timestamp": "2025-12-23T20:42:37.471656+00:00",
        "meta_object_name": "COSMOS 2251 DEB",
        "meta_object_id": "1993-036AEW",
        "meta_epoch": "2025-12-13T00:27:20.673792",
        "meta_mean_motion": 14.44269018,
        "meta_eccentricity": 0.00380101,
        "meta_inclination": 73.9933,
        "meta_ra_of_asc_node": 253.3374,
        "meta_arg_of_pericenter": 39.5345,
        "meta_mean_anomaly": 320.8573,
        "meta_ephemeris_type": 0,
        "meta_classification_type": "U",
        "meta_norad_cat_id": 34967,
        "meta_element_set_no": 999,
        "meta_rev_at_epoch": 64961,
        "meta_bstar": 0.0011451852,
        "meta_mean_motion_dot": 3.946e-05,
        "meta_mean_motion_ddot": 0,
        "tle_line1": "1 34967U 93036AEW 25347.01898928  .00003946  00000+0  11452-2 0  9992",
        "tle_line2": "2 34967  73.9933 253.3374 0038010  39.5345 320.8573 14.44269018649616"
      },
      "geometry": {
        "type": "Point",
        "coordinates": [
          59.17426278570437,
          -20.187730738276986
        ]
      }
    },
    {
      "type": "Feature",
      "properties": {
        "norad_id": 34968,
        "name": "COSMOS 2251 DEB",
        "group": "cosmos-2251-debris",
        "lat": -56.35159117672602,
        "lon": -159.6003129134656,
        "alt_km": 656.7341259036984,
        "timestamp": "2025-12-23T20:42:37.471666+00:00",
        "meta_object_name": "COSMOS 2251 DEB",
        "meta_object_id": "1993-036AEX",
        "meta_epoch": "2025-12-23T01:14:18.762720",
        "meta_mean_motion": 14.59422462,
        "meta_eccentricity": 0.00871055,
        "meta_inclination": 74.0381,
        "meta_ra_of_asc_node": 227.4133,
        "meta_arg_of_pericenter": 345.2402,
        "meta_mean_anomaly": 14.6221,
        "meta_ephemeris_type": 0,
        "meta_classification_type": "U",
        "meta_norad_cat_id": 34968,
        "meta_element_set_no": 999,
        "meta_rev_at_epoch": 88628,
        "meta_bstar": 0.00012972503,
        "meta_mean_motion_dot": 6.15e-06,
        "meta_mean_motion_ddot": 0,
        "tle_line1": "1 34968U 93036AEX 25357.05160605  .00000615  00000+0  12973-3 0  9992",
        "tle_line2": "2 34968  74.0381 227.4133 0087105 345.2402  14.6221 14.59422462886285"
      },
      "geometry": {
        "type": "Point",
        "coordinates": [
          -159.6003129134656,
          -56.35159117672602
        ]
      }
    },
    {
      "type": "Feature",
      "properties": {
        "norad_id": 34969,
        "name": "COSMOS 2251 DEB",
        "group": "cosmos-2251-debris",
        "lat": 23.2901907265964,
        "lon": 9.906814745024914,
        "alt_km": 799.9298470789281,
        "timestamp": "2025-12-23T20:42:37.471676+00:00",
        "meta_object_name": "COSMOS 2251 DEB",
        "meta_object_id": "1993-036AEY",
        "meta_epoch": "2025-12-21T18:18:22.827744",
        "meta_mean_motion": 14.32268431,
        "meta_eccentricity": 0.00731947,
        "meta_inclination": 74.0139,
        "meta_ra_of_asc_node": 6.6546,
        "meta_arg_of_pericenter": 137.5862,
        "meta_mean_anomaly": 223.0979,
        "meta_ephemeris_type": 0,
        "meta_classification_type": "U",
        "meta_norad_cat_id": 34969,
        "meta_element_set_no": 999,
        "meta_rev_at_epoch": 65266,
        "meta_bstar": 0.0001981389,
        "meta_mean_motion_dot": 5.25e-06,
        "meta_mean_motion_ddot": 0,
        "tle_line1": "1 34969U 93036AEY 25355.76276421  .00000525  00000+0  19814-3 0  9994",
        "tle_line2": "2 34969  74.0139   6.6546 0073194 137.5862 223.0979 14.32268431652661"
      },
      "geometry": {
        "type": "Point",
        "coordinates": [
          9.906814745024914,
          23.2901907265964
        ]
      }
    },
    {
      "type": "Feature",
      "properties": {
        "norad_id": 34971,
        "name": "COSMOS 2251 DEB",
        "group": "cosmos-2251-debris",
        "lat": -31.5733551287854,
        "lon": 94.03166102078823,
        "alt_km": 709.264415980233,
        "timestamp": "2025-12-23T20:42:37.471686+00:00",
        "meta_object_name": "COSMOS 2251 DEB",
        "meta_object_id": "1993-036AFA",
        "meta_epoch": "2025-12-18T11:38:13.277760",
        "meta_mean_motion": 14.55642375,
        "meta_eccentricity": 0.00693978,
        "meta_inclination": 73.9787,
        "meta_ra_of_asc_node": 274.0839,
        "meta_arg_of_pericenter": 138.3039,
        "meta_mean_anomaly": 342.538,
        "meta_ephemeris_type": 0,
        "meta_classification_type": "U",
        "meta_norad_cat_id": 34971,
        "meta_element_set_no": 999,
        "meta_rev_at_epoch": 66256,
        "meta_bstar": 0.00012982435,
        "meta_mean_motion_dot": 5.55e-06,
        "meta_mean_motion_ddot": 0,
        "tle_line1": "1 34971U 93036AFA 25352.48487590  .00000555  00000+0  12982-3 0  9996",
        "tle_line2": "2 34971  73.9787 274.0839 0069397 138.3039 342.5380 14.55642375662563"
      },
      "geometry": {
        "type": "Point",
        "coordinates": [
          94.03166102078823,
          -31.5733551287854
        ]
      }
    },
    {
      "type": "Feature",
      "properties": {
        "norad_id": 34972,
        "name": "COSMOS 2251 DEB",
        "group": "cosmos-2251-debris",
        "lat": 67.9895783051211,
        "lon": 73.3969158096659,
        "alt_km": 652.3161876465047,
        "timestamp": "2025-12-23T20:42:37.471722+00:00",
        "meta_object_name": "COSMOS 2251 DEB",
        "meta_object_id": "1993-036AFB",
        "meta_epoch": "2025-12-21T13:38:31.765344",
        "meta_mean_motion": 14.73012342,
        "meta_eccentricity": 0.00329831,
        "meta_inclination": 73.9871,
        "meta_ra_of_asc_node": 32.6088,
        "meta_arg_of_pericenter": 189.946,
        "meta_mean_anomaly": 322.6145,
        "meta_ephemeris_type": 0,
        "meta_classification_type": "U",
        "meta_norad_cat_id": 34972,
        "meta_element_set_no": 999,
        "meta_rev_at_epoch": 87780,
        "meta_bstar": 0.0011476529,
        "meta_mean_motion_dot": 7.412e-05,
        "meta_mean_motion_ddot": 0,
        "tle_line1": "1 34972U 93036AFB 25355.56842321  .00007412  00000+0  11477-2 0  9992",
        "tle_line2": "2 34972  73.9871  32.6088 0032983 189.9460 322.6145 14.73012342877801"
      },
      "geometry": {
        "type": "Point",
        "coordinates": [
          73.3969158096659,
          67.9895783051211
        ]
      }
    }
  ]
}